{
  "type": "FeatureCollection",
  "features": [
    {
      "type": "Feature",
      "properties": {
        "norad_id": 66399,
        "name": "STARLINK-35657",
        "group": "last-30-days",
        "lat": -46.24626281798975,
        "lon": -102.1632860166664,
        "alt_km": 424.29109172753124,
        "timestamp": "2025-12-03T04:52:28.419558+00:00",
        "meta_object_name": "STARLINK-35657",
        "meta_object_id": "2025-257V",
        "meta_epoch": "2025-12-02T20:00:03.000384",
        "meta_mean_motion": 15.49299777,
        "meta_eccentricity": 0.0001277,
        "meta_inclination": 53.1584,
        "meta_ra_of_asc_node": 311.1515,
        "meta_arg_of_pericenter": 103.3587,
        "meta_mean_anomaly": 288.7894,
        "meta_ephemeris_type": 0,
        "meta_classification_type": "U",
        "meta_norad_cat_id": 66399,
        "meta_element_set_no": 999,
        "meta_rev_at_epoch": 490,
        "meta_bstar": -0.00034278,
        "meta_mean_motion_dot": -0.00019459,
        "meta_mean_motion_ddot": 0,
        "tle_line1": "1 66399U 25257V   25336.83336806 -.00019459  00000+0 -34278-3 0  9996",
        "tle_line2": "2 66399  53.1584 311.1515 0001277 103.3587 288.7894 15.49299777  4901"
      },
      "geometry": {
        "type": "Point",
        "coordinates": [
          -102.1632860166664,
          -46.24626281798975
        ]
      }
    },
    {
      "type": "Feature",
      "properties": {
        "norad_id": 66400,
        "name": "STARLINK-35667",
        "group": "last-30-days",
        "lat": -43.94766898963952,
        "lon": -96.90579705876819,
        "alt_km": 423.70441913205195,
        "timestamp": "2025-12-03T04:52:28.419581+00:00",
        "meta_object_name": "STARLINK-35667",
        "meta_object_id": "2025-257W",
        "meta_epoch": "2025-12-02T20:00:03.000384",
        "meta_mean_motion": 15.4947041,
        "meta_eccentricity": 0.0001927,
        "meta_inclination": 53.1584,
        "meta_ra_of_asc_node": 311.1425,
        "meta_arg_of_pericenter": 103.5249,
        "meta_mean_anomaly": 292.6844,
        "meta_ephemeris_type": 0,
        "meta_classification_type": "U",
        "meta_norad_cat_id": 66400,
        "meta_element_set_no": 999,
        "meta_rev_at_epoch": 490,
        "meta_bstar": 0.0029742,
        "meta_mean_motion_dot": 0.00169565,
        "meta_mean_motion_ddot": 0,
        "tle_line1": "1 66400U 25257W   25336.83336806  .00169565  00000+0  29742-2 0  9990",
        "tle_line2": "2 66400  53.1584 311.1425 0001927 103.5249 292.6844 15.49470410  4907"
      },
      "geometry": {
        "type": "Point",
        "coordinates": [
          -96.90579705876819,
          -43.94766898963952
        ]
      }
    },
    {
      "type": "Feature",
      "properties": {
        "norad_id": 66401,
        "name": "STARLINK-35668",
        "group": "last-30-days",
        "lat": -43.180503516557046,
        "lon": -95.34516763156249,
        "alt_km": 424.0450645825258,
        "timestamp": "2025-12-03T04:52:28.419593+00:00",
        "meta_object_name": "STARLINK-35668",
        "meta_object_id": "2025-257X",
        "meta_epoch": "2025-12-02T20:00:03.000384",
        "meta_mean_motion": 15.49280465,
        "meta_eccentricity": 0.0001133,
        "meta_inclination": 53.1585,
        "meta_ra_of_asc_node": 311.1392,
        "meta_arg_of_pericenter": 98.0614,
        "meta_mean_anomaly": 299.8502,
        "meta_ephemeris_type": 0,
        "meta_classification_type": "U",
        "meta_norad_cat_id": 66401,
        "meta_element_set_no": 999,
        "meta_rev_at_epoch": 490,
        "meta_bstar": 8.0882e-05,
        "meta_mean_motion_dot": 4.048e-05,
        "meta_mean_motion_ddot": 0,
        "tle_line1": "1 66401U 25257X   25336.83336806  .00004048  00000+0  80882-4 0  9999",
        "tle_line2": "2 66401  53.1585 311.1392 0001133  98.0614 299.8502 15.49280465  4904"
      },
      "geometry": {
        "type": "Point",
        "coordinates": [
          -95.34516763156249,
          -43.180503516557046
        ]
      }
    },
    {
      "type": "Feature",
      "properties": {
        "norad_id": 66402,
        "name": "STARLINK-35644",
        "group": "last-30-days",
        "lat": -45.27263727036504,
        "lon": -99.81593828295816,
        "alt_km": 424.2346158777791,
        "timestamp": "2025-12-03T04:52:28.419603+00:00",
        "meta_object_name": "STARLINK-35644",
        "meta_object_id": "2025-257Y",
        "meta_epoch": "2025-12-02T20:00:03.000384",
        "meta_mean_motion": 15.49294723,
        "meta_eccentricity": 0.0001254,
        "meta_inclination": 53.1584,
        "meta_ra_of_asc_node": 311.1471,
        "meta_arg_of_pericenter": 102.4818,
        "meta_mean_anomaly": 291.5817,
        "meta_ephemeris_type": 0,
        "meta_classification_type": "U",
        "meta_norad_cat_id": 66402,
        "meta_element_set_no": 999,
        "meta_rev_at_epoch": 490,
        "meta_bstar": -0.00023667,
        "meta_mean_motion_dot": -0.00013582,
        "meta_mean_motion_ddot": 0,
        "tle_line1": "1 66402U 25257Y   25336.83336806 -.00013582  00000+0 -23667-3 0  9992",
        "tle_line2": "2 66402  53.1584 311.1471 0001254 102.4818 291.5817 15.49294723  4902"
      },
      "geometry": {
        "type": "Point",
        "coordinates": [
          -99.81593828295816,
          -45.27263727036504
        ]
      }
    },
    {
      "type": "Feature",
      "properties": {
        "norad_id": 66403,
        "name": "STARLINK-35602",
        "group": "last-30-days",
        "lat": -42.07658617417326,
        "lon": -93.2355674124312,
        "alt_km": 424.17910735969326,
        "timestamp": "2025-12-03T04:52:28.419613+00:00",
        "meta_object_name": "STARLINK-35602",
        "meta_object_id": "2025-257Z",
        "meta_epoch": "2025-12-02T20:00:03.000384",
        "meta_mean_motion": 15.49289257,
        "meta_eccentricity": 0.0001431,
        "meta_inclination": 53.1584,
        "meta_ra_of_asc_node": 311.1353,
        "meta_arg_of_pericenter": 99.3583,
        "meta_mean_anomaly": 300.4573,
        "meta_ephemeris_type": 0,
        "meta_classification_type": "U",
        "meta_norad_cat_id": 66403,
        "meta_element_set_no": 999,
        "meta_rev_at_epoch": 490,
        "meta_bstar": -7.9394e-05,
        "meta_mean_motion_dot": -4.858e-05,
        "meta_mean_motion_ddot": 0,
        "tle_line1": "1 66403U 25257Z   25336.83336806 -.00004858  00000+0 -79394-4 0  9998",
        "tle_line2": "2 66403  53.1584 311.1353 0001431  99.3583 300.4573 15.49289257  4907"
      },
      "geometry": {
        "type": "Point",
        "coordinates": [
          -93.2355674124312,
          -42.07658617417326
        ]
      }
    },
    {
      "type": "Feature",
      "properties": {
        "norad_id": 66404,
        "name": "STARLINK-35691",
        "group": "last-30-days",
        "lat": -40.930144143783096,
        "lon": -91.19094043747171,
        "alt_km": 424.0327228381502,
        "timestamp": "2025-12-03T04:52:28.419623+00:00",
        "meta_object_name": "STARLINK-35691",
        "meta_object_id": "2025-257AA",
        "meta_epoch": "2025-12-02T20:00:03.000384",
        "meta_mean_motion": 15.49293098,
        "meta_eccentricity": 0.0001279,
        "meta_inclination": 53.1584,
        "meta_ra_of_asc_node": 311.1309,
        "meta_arg_of_pericenter": 100.6964,
        "meta_mean_anomaly": 301.0344,
        "meta_ephemeris_type": 0,
        "meta_classification_type": "U",
        "meta_norad_cat_id": 66404,
        "meta_element_set_no": 999,
        "meta_rev_at_epoch": 490,
        "meta_bstar": -0.00017204,
        "meta_mean_motion_dot": -9.999e-05,
        "meta_mean_motion_ddot": 0,
        "tle_line1": "1 66404U 25257AA  25336.83336806 -.00009999  00000+0 -17204-3 0  9991",
        "tle_line2": "2 66404  53.1584 311.1309 0001279 100.6964 301.0344 15.49293098  4909"
      },
      "geometry": {
        "type": "Point",
        "coordinates": [
          -91.19094043747171,
          -40.930144143783096
        ]
      }
    },
    {
      "type": "Feature",
      "properties": {
        "norad_id": 66405,
        "name": "STARLINK-35683",
        "group": "last-30-days",
        "lat": -39.748623964153886,
        "lon": -89.21708036761731,
        "alt_km": 423.923904690193,
        "timestamp": "2025-12-03T04:52:28.419635+00:00",
        "meta_object_name": "STARLINK-35683",
        "meta_object_id": "2025-257AB",
        "meta_epoch": "2025-12-02T20:00:03.000384",
        "meta_mean_motion": 15.49293999,
        "meta_eccentricity": 0.0001174,
        "meta_inclination": 53.1585,
        "meta_ra_of_asc_node": 311.1264,
        "meta_arg_of_pericenter": 103.6358,
        "meta_mean_anomaly": 300.0128,
        "meta_ephemeris_type": 0,
        "meta_classification_type": "U",
        "meta_norad_cat_id": 66405,
        "meta_element_set_no": 999,
        "meta_rev_at_epoch": 474,
        "meta_bstar": -0.00021795,
        "meta_mean_motion_dot": -0.00012544,
        "meta_mean_motion_ddot": 0,
        "tle_line1": "1 66405U 25257AB  25336.83336806 -.00012544  00000+0 -21795-3 0  9992",
        "tle_line2": "2 66405  53.1585 311.1264 0001174 103.6358 300.0128 15.49293999  4746"
      },
      "geometry": {
        "type": "Point",
        "coordinates": [
          -89.21708036761731,
          -39.748623964153886
        ]
      }
    }
  ]
}